STARLINK-36254          
1 68338C 26059T   26172.74423611 -.00029614  00000+0 -87535-3 0  1723
2 68338  53.1567 219.6522 0001150  93.3271 172.9508 15.34391127    15
STARLINK-37200          
1 68339C 26059U   26172.72548611 -.00014575  00000+0 -49085-3 0  1728
2 68339  53.1573 224.6313 0001227  40.2122 169.7425 15.30223701    18
STARLINK-37185          
1 68340C 26059V   26172.76159722 -.00182940  00000+0 -54075-2 0  1721
2 68340  53.1585 219.8751 0001168  84.4384 126.7118 15.34467105    13
STARLINK-37181          
1 68341C 26059W   26172.76437500 -.00027750  00000+0 -81990-3 0  1729
2 68341  53.1579 219.9976 0001158  70.7634  85.8520 15.34403530    16
STARLINK-37192          
1 68342C 26059X   26172.74493056 -.00024009  00000+0 -70954-3 0  1728
2 68342  53.1578 219.9054 0001246  83.2135  70.5936 15.34393902    19
STARLINK-37158          
1 68343C 26059Y   26172.67479167  .00006737  00000+0  19891-3 0  1727
2 68343  53.1568 220.6520 0000965  82.2741 182.9586 15.34408943    16
STARLINK-36380          
1 68344C 26059Z   26172.73173611 -.00014747  00000+0 -50986-3 0  1722
2 68344  53.1566 225.7015 0001337  62.2998 351.1517 15.29373399    10
STARLINK-37214          
1 68345C 26059AA  26172.69145833 -.00003876  00000+0 -11459-3 0  1726
2 68345  53.1568 219.8804 0001177  82.3563 263.8929 15.34370118    14
STARLINK-37169          
1 68346C 26059AB  26172.71159722 -.00009181  00000+0 -27131-3 0  1721
2 68346  53.1570 220.3879 0001210  83.6721  71.4753 15.34390416    16
STARLINK-37136          
1 68347C 26059AC  26172.73243056 -.00018475  00000+0 -62296-3 0  1725
2 68347  53.1570 224.6544 0000777  78.9326 140.2162 15.30187497    16
STARLINK-37182          
1 68348C 26059AD  26172.70604167 -.00010507  00000+0 -31049-3 0  1727
2 68348  53.1579 220.2272 0000941  76.3650 141.0865 15.34391495    19
STARLINK-37183          
1 68349C 26059AE  26172.74354167 -.00025005  00000+0 -84294-3 0  1723
2 68349  53.1572 224.5667 0000986  86.1491 211.8038 15.30198035    18
STARLINK-36296          
1 68380C 26063A   26172.66576389  .00001359  00000+0  25042-4 0  1727
2 68380  97.2863 317.3704 0000682  91.8885 331.2835 15.49182969    12
STARLINK-37111          
1 68381C 26063B   26172.64145833  .00003121  00000+0  97000-4 0  1724
2 68381  97.2852 314.7593 0000421 104.6089 205.3858 15.33398072    11
STARLINK-36946          
1 68382C 26063C   26172.66368056  .00027761  00000+0  86217-3 0  1724
2 68382  97.2855 314.8694 0001355  93.1429 189.4696 15.33410944    10
STARLINK-37121          
1 68383C 26063D   26172.74493056  .00089147  00000+0  27688-2 0  1725
2 68383  97.2853 314.8486 0000260 124.2818   6.5787 15.33378674    13
STARLINK-37137          
1 68384C 26063E   26172.74354167  .00092483  00000+0  28720-2 0  1720
2 68384  97.2856 314.9530 0000296 116.5043 261.6878 15.33380753    17
STARLINK-37128          
1 68385C 26063F   26172.68868056  .00047074  00000+0  14621-2 0  1722
2 68385  97.2858 314.8409 0001205  93.1311 207.3972 15.33398496    18
STARLINK-37198          
1 68386C 26063G   26172.71298611  .00067554  00000+0  20983-2 0  1724
2 68386  97.2857 314.9537 0000793  97.3972 187.2343 15.33385589    18
STARLINK-37223          
1 68387C 26063H   26172.75673611  .00089530  00000+0  27800-2 0  1729
2 68387  97.2862 314.9114 0000894  96.5822 234.3913 15.33385773    15
STARLINK-37203          
1 68388C 26063J   26172.68173611  .00049795  00000+0  15466-2 0  1721
2 68388  97.2857 314.8795 0000764  95.0194 272.2029 15.33396989    16
STARLINK-37197          
1 68389C 26063K   26172.72687500  .00080963  00000+0  25148-2 0  1724
2 68389  97.2858 314.9472 0000358 113.2015 203.0520 15.33380302    15
STARLINK-37193          
1 68390C 26063L   26172.68798611  .00027297  00000+0  50297-3 0  1722
2 68390  97.2847 317.6436 0000732  94.8415 326.8355 15.49172963    18
STARLINK-37216          
1 68391C 26063M   26172.75118056  .00083893  00000+0  26048-2 0  1720
2 68391  97.2853 314.8863 0001051 104.3572 135.9744 15.33390060    19
STARLINK-37215          
1 68392C 26063N   26172.63451389 -.00000368  00000+0 -11429-4 0  1724
2 68392  97.2862 314.7786 0000612 232.7193 113.9756 15.33420856    16
STARLINK-37184          
1 68393C 26063P   26172.73659722  .00082396  00000+0  25586-2 0  1723
2 68393  97.2865 314.9171 0000966  92.9047 186.9678 15.33387342    11
STARLINK-37157          
1 68394C 26063Q   26172.64631944  .00007543  00000+0  23435-3 0  1723
2 68394  97.2854 314.8844 0000232 107.0748 154.7688 15.33411502    18
STARLINK-37172          
1 68395C 26063R   26172.70604167  .00116480  00000+0  36094-2 0  1723
2 68395  97.2854 314.8161 0000501 106.1224 185.1884 15.33437290    17
STARLINK-37190          
1 68396C 26063S   26172.76229167  .00096230  00000+0  29883-2 0  1721
2 68396  97.2855 314.9789 0000615 102.4219  34.2108 15.33379791    19
STARLINK-37194          
1 68397C 26063T   26172.76020833  .00092503  00000+0  28723-2 0  1722
2 68397  97.2860 314.9230 0000724 102.8317 262.2990 15.33384157    15
STARLINK-37220          
1 68398C 26063U   26172.74423611  .00081017  00000+0  25159-2 0  1720
2 68398  97.2856 314.8848 0000706 102.6109 114.4055 15.33386394    17
STARLINK-37187          
1 68399C 26063V   26172.63937500 -.00000849  00000+0 -26383-4 0  1724
2 68399  97.2863 314.8866 0001038  91.8610 161.6583 15.33423846    15
STARLINK-36235          
1 68400C 26063W   26172.67895833  .00042720  00000+0  13268-2 0  1721
2 68400  97.2857 314.8594 0001148  90.3757 216.5166 15.33401593    19
STARLINK-37175          
1 68401C 26063X   26172.72340278  .00079335  00000+0  24641-2 0  1725
2 68401  97.2858 314.8421 0001181  95.8409 321.2518 15.33381811    16
STARLINK-36360          
1 68402C 26063Y   26172.75743056  .00092721  00000+0  28790-2 0  1723
2 68402  97.2856 314.9303 0000946  99.2464 265.5576 15.33384142    16
STARLINK-37218          
1 68403C 26063Z   26172.74979167  .00064332  00000+0  11851-2 0  1724
2 68403  97.2848 317.5563 0001581  90.4291 334.4512 15.49159815    12
STARLINK-37188          
1 68404C 26063AA  26172.76506944  .00093386  00000+0  29002-2 0  1724
2 68404  97.2857 314.9956 0000521 206.3912 335.5697 15.33378606    11
STARLINK-37262          
1 68508C 26068A   26172.73104167 -.00060544  00000+0 -17887-2 0  1722
2 68508  53.1593 358.3800 0000924  81.2885 140.8226 15.34423045    14
STARLINK-36292          
1 68509C 26068B   26172.72756944 -.00066077  00000+0 -19521-2 0  1722
2 68509  53.1596   3.7287 0001200  89.5500 351.6906 15.34425498    12
STARLINK-37260          
1 68510C 26068C   26172.73173611 -.00076441  00000+0 -22581-2 0  1725
2 68510  53.1591   2.1020 0001229  87.5530  89.2066 15.34434353    10
STARLINK-37280          
1 68511C 26068D   26172.68451389 -.00069644  00000+0 -20575-2 0  1729
2 68511  53.1598 358.2569 0001176  90.9175  48.4921 15.34428120    17
STARLINK-37286          
1 68512C 26068E   26172.64979167 -.00045670  00000+0 -13487-2 0  1722
2 68512  53.1608 358.2400 0001257  90.9940 309.5310 15.34428800    12
STARLINK-36250          
1 68513C 26068F   26172.73451389 -.00061149  00000+0 -18066-2 0  1721
2 68513  53.1597   3.7465 0001075  87.5563   8.7987 15.34422064    18
STARLINK-37251          
1 68514C 26068G   26172.70326389 -.00058007  00000+0 -17135-2 0  1725
2 68514  53.1594   4.4135 0001175  94.2666 293.5386 15.34426327    11
STARLINK-36293          
1 68515C 26068H   26172.71368056 -.00055110  00000+0 -16283-2 0  1729
2 68515  53.1586   4.2830 0000724  95.7994  24.4707 15.34418618    14
STARLINK-36290          
1 68516C 26068J   26172.75604167 -.00078077  00000+0 -23068-2 0  1726
2 68516  53.1597   3.7072 0000950  87.2746  93.1951 15.34430636    19
STARLINK-36298          
1 68517C 26068K   26172.73937500 -.00188460  00000+0 -55695-2 0  1724
2 68517  53.1594   4.1097 0000711  81.8231 215.3899 15.34476527    11
STARLINK-36857          
1 68518C 26068L   26172.65465278 -.00027619  00000+0 -81565-3 0  1728
2 68518  53.1597   4.2575 0001254  94.8917 210.3144 15.34418399    16
STARLINK-36326          
1 68519C 26068M   26172.72479167 -.00072095  00000+0 -21301-2 0  1728
2 68519  53.1592   4.0001 0001265  88.4127 209.5619 15.34425401    17
STARLINK-37126          
1 68520C 26068N   26172.71368056 -.00045021  00000+0 -13300-2 0  1722
2 68520  53.1597   3.9354 0001278  90.6344 204.0525 15.34416895    16
STARLINK-36347          
1 68521C 26068P   26172.68659722 -.00043160  00000+0 -14540-2 0  1721
2 68521  53.1606   6.3015 0001285  83.3007   5.8568 15.30226680    13
STARLINK-36322          
1 68522C 26068Q   26172.66437500 -.00044556  00000+0 -13161-2 0  1726
2 68522  53.1593   4.2977 0001242  93.3433 219.0920 15.34420081    16
STARLINK-37208          
1 68523C 26068R   26172.67270833 -.00074288  00000+0 -21916-2 0  1724
2 68523  53.1598   4.0068 0000991  78.9903  47.3450 15.34475193    16
STARLINK-36302          
1 68524C 26068S   26172.74562500 -.00055149  00000+0 -16292-2 0  1724
2 68524  53.1589   3.9972 0001048  58.3748 308.2001 15.34421822    13
STARLINK-36311          
1 68525C 26068T   26172.76506944 -.00084888  00000+0 -25085-2 0  1729
2 68525  53.1590   3.8816 0001160  85.8314  39.8693 15.34427455    13
STARLINK-37178          
1 68526C 26068U   26172.71993056 -.00027365  00000+0 -49142-3 0  1727
2 68526  53.1591   2.3162 0001388  86.8100 328.0792 15.49299539    18
STARLINK-37248          
1 68527C 26068V   26172.76368056 -.00081049  00000+0 -23951-2 0  1727
2 68527  53.1588   1.6644 0001221  86.8250  46.0628 15.34424840    18
STARLINK-37241          
1 68528C 26068W   26172.75673611 -.00010684  00000+0 -31577-3 0  1724
2 68528  53.1604   5.9116 0000869  68.3967  77.8841 15.34385386    16
STARLINK-37244          
1 68529C 26068X   26172.73381944 -.00063753  00000+0 -18834-2 0  1723
2 68529  53.1586   4.1689 0001192  91.7618 151.4301 15.34425204    19
